TRANSPORTER-12 OBJECT AZ
1 62656U 25009AZ  26068.71026235  .00016057  00000+0  54903-3 0  9991
2 62656  97.3981 151.9913 0000987  45.3581 314.7740 15.30349724 63792
STARLINK-34528          
1 64479U 25133H   26068.45068362  .00007932  00000+0  27991-3 0  9991
2 64479  53.1600 117.7817 0001309  68.2412 291.8728 15.30170743 41132
